{"type": "FeatureCollection", "features": [ {"type": "Feature", "properties": {"norad_id": 61186, "name": "BEIDOU-3 M25 (C47)", "group": "beidou", "lat": -1.1553256947957575, "lon": -52.53949863950893, "alt_km": 21520.651922520537, "timestamp": "2025-12-24T22:42:22.296702+00:00", "meta": {"OBJECT_NAME": "BEIDOU-3 M25 (C47)", "OBJECT_ID": "2024-168B", "EPOCH": "2025-12-24T01:04:04.997856", "MEAN_MOTION": 1.86230087, "ECCENTRICITY": 0.0005428, "INCLINATION": 54.6321, "RA_OF_ASC_NODE": 308.3293, "ARG_OF_PERICENTER": 299.9145, "MEAN_ANOMALY": 174.1551, "EPHEMERIS_TYPE": 0, "CLASSIFICATION_TYPE": "U", "NORAD_CAT_ID": 61186, "ELEMENT_SET_NO": 999, "REV_AT_EPOCH": 852, "BSTAR": 0, "MEAN_MOTION_DOT": -5.3e-07, "MEAN_MOTION_DDOT": 0}, "tle": {"line1": "1 61186U 24168B   25358.04450229 -.00000053  00000+0  00000+0 0  9999", "line2": "2 61186  54.6321 308.3293 0005428 299.9145 174.1551  1.86230087  8525"}}, "geometry": {"type": "Point", "coordinates": [-52.53949863950893, -1.1553256947957575]}}, {"type": "Feature", "properties": {"norad_id": 61187, "name": "BEIDOU-3 M27 (C49)", "group": "beidou", "lat": 36.24263231102462, "lon": 96.9176947990482, "alt_km": 21530.010041221816, "timestamp": "2025-12-24T22:42:22.296713+00:00", "meta": {"OBJECT_NAME": "BEIDOU-3 M27 (C49)", "OBJECT_ID": "2024-168C", "EPOCH": "2025-12-24T07:03:52.725600", "MEAN_MOTION": 1.86230222, "ECCENTRICITY": 0.0002547, "INCLINATION": 54.6273, "RA_OF_ASC_NODE": 308.3043, "ARG_OF_PERICENTER": 341.1399, "MEAN_ANOMALY": 75.3953, "EPHEMERIS_TYPE": 0, "CLASSIFICATION_TYPE": "U", "NORAD_CAT_ID": 61187, "ELEMENT_SET_NO": 999, "REV_AT_EPOCH": 600, "BSTAR": 0, "MEAN_MOTION_DOT": -5.3e-07, "MEAN_MOTION_DDOT": 0}, "tle": {"line1": "1 61187U 24168C   25358.29436025 -.00000053  00000+0  00000+0 0  9995", "line2": "2 61187  54.6273 308.3043 0002547 341.1399  75.3953  1.86230222  6005"}}, "geometry": {"type": "Point", "coordinates": [96.9176947990482, 36.24263231102462]}}]}